<?xml version='1.0' encoding='UTF-8' standalone='yes' ?>
<gpx version="1.1" creator="OsmAndRouterV2" xmlns="http://www.topografix.com/GPX/1/1" xmlns:osmand="https://osmand.net/docs/technical/osmand-file-formats/osmand-gpx" xmlns:gpxtpx="https://www8.garmin.com/xmlschemas/TrackPointExtensionv1.xsd" xmlns:xsi="http://www.w3.org/2001/XMLSchema-instance" xsi:schemaLocation="http://www.topografix.com/GPX/1/1 https://www.topografix.com/GPX/1/1/gpx.xsd">
  <metadata>
    <name>Bittner</name>
    <time>2026-04-25T01:40:10Z</time>
    <extensions>
      <osmand:activity>car</osmand:activity>
    </extensions>
  </metadata>
  <rte>
    <rtept lat="42.513876" lon="-93.250205">
      <extensions>
        <osmand:profile>car</osmand:profile>
        <osmand:trkpt_idx>0</osmand:trkpt_idx>
      </extensions>
    </rtept>
    <rtept lat="42.360594" lon="-93.002289">
      <extensions>
        <osmand:profile>car</osmand:profile>
        <osmand:trkpt_idx>271</osmand:trkpt_idx>
      </extensions>
    </rtept>
    <rtept lat="42.360594" lon="-93.0022891">
      <extensions>
        <osmand:profile>car</osmand:profile>
        <osmand:trkpt_idx>272</osmand:trkpt_idx>
      </extensions>
    </rtept>
  </rte>
  <trk>
    <name>Bittner</name>
    <trkseg>
      <trkpt lat="42.5138829" lon="-93.2501641">
        <ele>327</ele>
      </trkpt>
      <trkpt lat="42.5138513" lon="-93.2503921">
        <ele>326.9</ele>
      </trkpt>
      <trkpt lat="42.5138572" lon="-93.2505932">
        <ele>326.8</ele>
      </trkpt>
      <trkpt lat="42.513873" lon="-93.2507434">
        <ele>326.2</ele>
      </trkpt>
      <trkpt lat="42.514043" lon="-93.2513523">
        <ele>321.5</ele>
      </trkpt>
      <trkpt lat="42.5142684" lon="-93.2519585">
        <ele>319.5</ele>
      </trkpt>
      <trkpt lat="42.5144839" lon="-93.254579">
        <ele>324.2</ele>
      </trkpt>
      <trkpt lat="42.5146282" lon="-93.2567918">
        <ele>322.2</ele>
      </trkpt>
      <trkpt lat="42.5147172" lon="-93.2593587">
        <ele>324.5</ele>
      </trkpt>
      <trkpt lat="42.5147251" lon="-93.2595733">
        <ele>324.8</ele>
      </trkpt>
      <trkpt lat="42.514826" lon="-93.2611397">
        <ele>326.2</ele>
      </trkpt>
      <trkpt lat="42.5150059" lon="-93.261998">
        <ele>327.8</ele>
      </trkpt>
      <trkpt lat="42.5151008" lon="-93.2625532">
        <ele>329</ele>
      </trkpt>
      <trkpt lat="42.5151225" lon="-93.2626873">
        <ele>328.8</ele>
      </trkpt>
      <trkpt lat="42.5149426" lon="-93.2626525">
        <ele>327.2</ele>
      </trkpt>
      <trkpt lat="42.5145294" lon="-93.2625827">
        <ele>328.2</ele>
      </trkpt>
      <trkpt lat="42.5143297" lon="-93.2625586">
        <ele>329</ele>
      </trkpt>
      <trkpt lat="42.5139402" lon="-93.2625157">
        <ele>330.2</ele>
      </trkpt>
      <trkpt lat="42.5132977" lon="-93.2624593">
        <ele>334.2</ele>
      </trkpt>
      <trkpt lat="42.5130209" lon="-93.2624325">
        <ele>334.4</ele>
      </trkpt>
      <trkpt lat="42.5128152" lon="-93.2624272">
        <ele>334.5</ele>
      </trkpt>
      <trkpt lat="42.5122043" lon="-93.2624137">
        <ele>335</ele>
      </trkpt>
      <trkpt lat="42.5116744" lon="-93.2624084">
        <ele>335.8</ele>
      </trkpt>
      <trkpt lat="42.5104466" lon="-93.2624003">
        <ele>338.2</ele>
      </trkpt>
      <trkpt lat="42.5098495" lon="-93.2623976">
        <ele>342.5</ele>
      </trkpt>
      <trkpt lat="42.5084081" lon="-93.2623869">
        <ele>346.5</ele>
      </trkpt>
      <trkpt lat="42.5083013" lon="-93.2623869">
        <ele>346.8</ele>
      </trkpt>
      <trkpt lat="42.5081688" lon="-93.2623869">
        <ele>346.8</ele>
      </trkpt>
      <trkpt lat="42.5080957" lon="-93.2623842">
        <ele>346.8</ele>
      </trkpt>
      <trkpt lat="42.5079988" lon="-93.2623842">
        <ele>346.8</ele>
      </trkpt>
      <trkpt lat="42.5076567" lon="-93.2623816">
        <ele>346.9</ele>
      </trkpt>
      <trkpt lat="42.5070734" lon="-93.2623789">
        <ele>347</ele>
      </trkpt>
      <trkpt lat="42.5063932" lon="-93.262395">
        <ele>347.4</ele>
      </trkpt>
      <trkpt lat="42.5051356" lon="-93.2624218">
        <ele>348</ele>
      </trkpt>
      <trkpt lat="42.5035122" lon="-93.2624164">
        <ele>346</ele>
      </trkpt>
      <trkpt lat="42.5029545" lon="-93.2624164">
        <ele>346</ele>
      </trkpt>
      <trkpt lat="42.5026421" lon="-93.2624164">
        <ele>346</ele>
      </trkpt>
      <trkpt lat="42.5016929" lon="-93.2624084">
        <ele>345</ele>
      </trkpt>
      <trkpt lat="42.500544" lon="-93.262403">
        <ele>344.8</ele>
      </trkpt>
      <trkpt lat="42.500453" lon="-93.2624003">
        <ele>344.5</ele>
      </trkpt>
      <trkpt lat="42.4999428" lon="-93.2623976">
        <ele>344.3</ele>
      </trkpt>
      <trkpt lat="42.4989264" lon="-93.2623923">
        <ele>344</ele>
      </trkpt>
      <trkpt lat="42.4987009" lon="-93.2623896">
        <ele>344</ele>
      </trkpt>
      <trkpt lat="42.4974452" lon="-93.2624111">
        <ele>344</ele>
      </trkpt>
      <trkpt lat="42.4962428" lon="-93.2624379">
        <ele>344</ele>
      </trkpt>
      <trkpt lat="42.4961201" lon="-93.2624406">
        <ele>344</ele>
      </trkpt>
      <trkpt lat="42.495511" lon="-93.2624432">
        <ele>344</ele>
      </trkpt>
      <trkpt lat="42.4950166" lon="-93.2624459">
        <ele>344</ele>
      </trkpt>
      <trkpt lat="42.4942532" lon="-93.2624486">
        <ele>344.2</ele>
      </trkpt>
      <trkpt lat="42.49347" lon="-93.2624432">
        <ele>345</ele>
      </trkpt>
      <trkpt lat="42.4932406" lon="-93.2624406">
        <ele>345.2</ele>
      </trkpt>
      <trkpt lat="42.4909978" lon="-93.2624513">
        <ele>348</ele>
      </trkpt>
      <trkpt lat="42.4866544" lon="-93.2624567">
        <ele>345.2</ele>
      </trkpt>
      <trkpt lat="42.4852302" lon="-93.2624593">
        <ele>344.2</ele>
      </trkpt>
      <trkpt lat="42.4830939" lon="-93.2624674">
        <ele>342.2</ele>
      </trkpt>
      <trkpt lat="42.4816005" lon="-93.2624674">
        <ele>341.8</ele>
      </trkpt>
      <trkpt lat="42.4784631" lon="-93.2624808">
        <ele>339.2</ele>
      </trkpt>
      <trkpt lat="42.475929" lon="-93.2624888">
        <ele>342.5</ele>
      </trkpt>
      <trkpt lat="42.475015" lon="-93.2624915">
        <ele>344.5</ele>
      </trkpt>
      <trkpt lat="42.4728072" lon="-93.2624969">
        <ele>344</ele>
      </trkpt>
      <trkpt lat="42.4723007" lon="-93.2624647">
        <ele>343.5</ele>
      </trkpt>
      <trkpt lat="42.471907" lon="-93.262403">
        <ele>344.2</ele>
      </trkpt>
      <trkpt lat="42.4717309" lon="-93.2623574">
        <ele>344.5</ele>
      </trkpt>
      <trkpt lat="42.4715192" lon="-93.262293">
        <ele>345</ele>
      </trkpt>
      <trkpt lat="42.4713372" lon="-93.2622313">
        <ele>345.1</ele>
      </trkpt>
      <trkpt lat="42.4711136" lon="-93.2621321">
        <ele>345.2</ele>
      </trkpt>
      <trkpt lat="42.4707041" lon="-93.2619229">
        <ele>346</ele>
      </trkpt>
      <trkpt lat="42.4705893" lon="-93.2618639">
        <ele>346.2</ele>
      </trkpt>
      <trkpt lat="42.4700393" lon="-93.2616144">
        <ele>346</ele>
      </trkpt>
      <trkpt lat="42.4697247" lon="-93.2615072">
        <ele>345</ele>
      </trkpt>
      <trkpt lat="42.4694082" lon="-93.2614267">
        <ele>344.5</ele>
      </trkpt>
      <trkpt lat="42.4692183" lon="-93.2613811">
        <ele>344.2</ele>
      </trkpt>
      <trkpt lat="42.4690006" lon="-93.2613462">
        <ele>344</ele>
      </trkpt>
      <trkpt lat="42.4650553" lon="-93.2612658">
        <ele>344.2</ele>
      </trkpt>
      <trkpt lat="42.4580308" lon="-93.261129">
        <ele>350.2</ele>
      </trkpt>
      <trkpt lat="42.455199" lon="-93.2611558">
        <ele>349.4</ele>
      </trkpt>
      <trkpt lat="42.4546864" lon="-93.2611504">
        <ele>349.2</ele>
      </trkpt>
      <trkpt lat="42.4508333" lon="-93.2611102">
        <ele>350.2</ele>
      </trkpt>
      <trkpt lat="42.4489808" lon="-93.261129">
        <ele>350.8</ele>
      </trkpt>
      <trkpt lat="42.4473401" lon="-93.2611719">
        <ele>351.2</ele>
      </trkpt>
      <trkpt lat="42.4407767" lon="-93.261196">
        <ele>354.2</ele>
      </trkpt>
      <trkpt lat="42.4391734" lon="-93.2611987">
        <ele>355.2</ele>
      </trkpt>
      <trkpt lat="42.4335673" lon="-93.2612094">
        <ele>350.8</ele>
      </trkpt>
      <trkpt lat="42.4280241" lon="-93.2612336">
        <ele>349.2</ele>
      </trkpt>
      <trkpt lat="42.4262898" lon="-93.2612443">
        <ele>345.8</ele>
      </trkpt>
      <trkpt lat="42.4211756" lon="-93.2612363">
        <ele>345.2</ele>
      </trkpt>
      <trkpt lat="42.4208251" lon="-93.2612336">
        <ele>344.5</ele>
      </trkpt>
      <trkpt lat="42.4191817" lon="-93.2612309">
        <ele>341</ele>
      </trkpt>
      <trkpt lat="42.4127025" lon="-93.2612014" />
      <trkpt lat="42.4124153" lon="-93.2611987">
        <ele>335</ele>
      </trkpt>
      <trkpt lat="42.4104271" lon="-93.261188">
        <ele>340.8</ele>
      </trkpt>
      <trkpt lat="42.4052502" lon="-93.2611638">
        <ele>340.5</ele>
      </trkpt>
      <trkpt lat="42.3974702" lon="-93.2611263">
        <ele>333.5</ele>
      </trkpt>
      <trkpt lat="42.3869673" lon="-93.2611853">
        <ele>319.5</ele>
      </trkpt>
      <trkpt lat="42.3857766" lon="-93.2611826">
        <ele>319.8</ele>
      </trkpt>
      <trkpt lat="42.3847742" lon="-93.2611746">
        <ele>320.5</ele>
      </trkpt>
      <trkpt lat="42.3829673" lon="-93.2611665">
        <ele>319.5</ele>
      </trkpt>
      <trkpt lat="42.3805086" lon="-93.2611558">
        <ele>329.5</ele>
      </trkpt>
      <trkpt lat="42.3773047" lon="-93.2611719">
        <ele>325.2</ele>
      </trkpt>
      <trkpt lat="42.3747546" lon="-93.2611719">
        <ele>329.2</ele>
      </trkpt>
      <trkpt lat="42.3700147" lon="-93.2611477" />
      <trkpt lat="42.3694895" lon="-93.2611424">
        <ele>317</ele>
      </trkpt>
      <trkpt lat="42.3685463" lon="-93.2611263">
        <ele>322</ele>
      </trkpt>
      <trkpt lat="42.3683461" lon="-93.2611263">
        <ele>323.5</ele>
      </trkpt>
      <trkpt lat="42.3664694" lon="-93.2611531">
        <ele>323</ele>
      </trkpt>
      <trkpt lat="42.3646621" lon="-93.2611853">
        <ele>334.5</ele>
      </trkpt>
      <trkpt lat="42.3644361" lon="-93.2611826">
        <ele>334.9</ele>
      </trkpt>
      <trkpt lat="42.3642518" lon="-93.2611799">
        <ele>335.2</ele>
      </trkpt>
      <trkpt lat="42.3608906" lon="-93.2611209">
        <ele>342.8</ele>
      </trkpt>
      <trkpt lat="42.3608093" lon="-93.2611209">
        <ele>343</ele>
      </trkpt>
      <trkpt lat="42.3607716" lon="-93.258149">
        <ele>341</ele>
      </trkpt>
      <trkpt lat="42.3606844" lon="-93.2513443">
        <ele>336.8</ele>
      </trkpt>
      <trkpt lat="42.3606686" lon="-93.245607">
        <ele>332</ele>
      </trkpt>
      <trkpt lat="42.3606547" lon="-93.2391509">
        <ele>329</ele>
      </trkpt>
      <trkpt lat="42.3606448" lon="-93.2339233">
        <ele>321</ele>
      </trkpt>
      <trkpt lat="42.3606408" lon="-93.2319492">
        <ele>320</ele>
      </trkpt>
      <trkpt lat="42.360732" lon="-93.2136109" />
      <trkpt lat="42.36073" lon="-93.2126749">
        <ele>309</ele>
      </trkpt>
      <trkpt lat="42.3607241" lon="-93.2101697">
        <ele>328.2</ele>
      </trkpt>
      <trkpt lat="42.3607221" lon="-93.2086784">
        <ele>329.8</ele>
      </trkpt>
      <trkpt lat="42.3607082" lon="-93.2060337">
        <ele>329.2</ele>
      </trkpt>
      <trkpt lat="42.3606884" lon="-93.2025173">
        <ele>328.5</ele>
      </trkpt>
      <trkpt lat="42.3606805" lon="-93.1984913">
        <ele>331.8</ele>
      </trkpt>
      <trkpt lat="42.3606884" lon="-93.1950098">
        <ele>333.2</ele>
      </trkpt>
      <trkpt lat="42.3607598" lon="-93.1886852">
        <ele>331.8</ele>
      </trkpt>
      <trkpt lat="42.3607895" lon="-93.1865314">
        <ele>327.2</ele>
      </trkpt>
      <trkpt lat="42.3608133" lon="-93.1820092">
        <ele>325.5</ele>
      </trkpt>
      <trkpt lat="42.3608608" lon="-93.1725597">
        <ele>314.5</ele>
      </trkpt>
      <trkpt lat="42.3608886" lon="-93.1669298">
        <ele>315.8</ele>
      </trkpt>
      <trkpt lat="42.360847" lon="-93.1643361">
        <ele>313.8</ele>
      </trkpt>
      <trkpt lat="42.3608212" lon="-93.160868">
        <ele>314</ele>
      </trkpt>
      <trkpt lat="42.360845" lon="-93.1559917">
        <ele>308.8</ele>
      </trkpt>
      <trkpt lat="42.3608668" lon="-93.152411">
        <ele>303.8</ele>
      </trkpt>
      <trkpt lat="42.3608727" lon="-93.1513408">
        <ele>304.8</ele>
      </trkpt>
      <trkpt lat="42.3609064" lon="-93.1460139">
        <ele>300.5</ele>
      </trkpt>
      <trkpt lat="42.3609342" lon="-93.142688">
        <ele>302.8</ele>
      </trkpt>
      <trkpt lat="42.360948" lon="-93.1398582" />
      <trkpt lat="42.36095" lon="-93.1391019">
        <ele>299</ele>
      </trkpt>
      <trkpt lat="42.360952" lon="-93.1378198">
        <ele>303.2</ele>
      </trkpt>
      <trkpt lat="42.3608807" lon="-93.13348">
        <ele>304.5</ele>
      </trkpt>
      <trkpt lat="42.3607756" lon="-93.1287244">
        <ele>310</ele>
      </trkpt>
      <trkpt lat="42.3607617" lon="-93.1280753">
        <ele>312.5</ele>
      </trkpt>
      <trkpt lat="42.3607558" lon="-93.1275576">
        <ele>313.5</ele>
      </trkpt>
      <trkpt lat="42.3607518" lon="-93.1272089">
        <ele>314.2</ele>
      </trkpt>
      <trkpt lat="42.360734" lon="-93.1264687">
        <ele>315</ele>
      </trkpt>
      <trkpt lat="42.3606765" lon="-93.1236738">
        <ele>313.5</ele>
      </trkpt>
      <trkpt lat="42.3605596" lon="-93.1189826">
        <ele>308.2</ele>
      </trkpt>
      <trkpt lat="42.3605675" lon="-93.1158632">
        <ele>318</ele>
      </trkpt>
      <trkpt lat="42.3605715" lon="-93.1141385">
        <ele>315.2</ele>
      </trkpt>
      <trkpt lat="42.3605814" lon="-93.1130067">
        <ele>317</ele>
      </trkpt>
      <trkpt lat="42.3605794" lon="-93.1116763">
        <ele>319.8</ele>
      </trkpt>
      <trkpt lat="42.3605853" lon="-93.1092221">
        <ele>323.4</ele>
      </trkpt>
      <trkpt lat="42.3605873" lon="-93.109096">
        <ele>323.6</ele>
      </trkpt>
      <trkpt lat="42.3605873" lon="-93.1088492">
        <ele>324</ele>
      </trkpt>
      <trkpt lat="42.3605873" lon="-93.1086695">
        <ele>324.5</ele>
      </trkpt>
      <trkpt lat="42.3605893" lon="-93.1080526">
        <ele>325.8</ele>
      </trkpt>
      <trkpt lat="42.3605913" lon="-93.1067947">
        <ele>326.5</ele>
      </trkpt>
      <trkpt lat="42.3605913" lon="-93.1067035">
        <ele>326.6</ele>
      </trkpt>
      <trkpt lat="42.3605933" lon="-93.1063253">
        <ele>326.8</ele>
      </trkpt>
      <trkpt lat="42.3605953" lon="-93.1059578">
        <ele>327</ele>
      </trkpt>
      <trkpt lat="42.3605972" lon="-93.1055903">
        <ele>326.2</ele>
      </trkpt>
      <trkpt lat="42.3605992" lon="-93.1051907">
        <ele>326</ele>
      </trkpt>
      <trkpt lat="42.3606052" lon="-93.1044155">
        <ele>325.2</ele>
      </trkpt>
      <trkpt lat="42.3606071" lon="-93.1040213">
        <ele>325.2</ele>
      </trkpt>
      <trkpt lat="42.3606111" lon="-93.1034955">
        <ele>325.2</ele>
      </trkpt>
      <trkpt lat="42.3606111" lon="-93.1033346">
        <ele>325.1</ele>
      </trkpt>
      <trkpt lat="42.3606131" lon="-93.1031308">
        <ele>325.1</ele>
      </trkpt>
      <trkpt lat="42.3606131" lon="-93.1030905">
        <ele>325.1</ele>
      </trkpt>
      <trkpt lat="42.3606151" lon="-93.1029725">
        <ele>325.1</ele>
      </trkpt>
      <trkpt lat="42.3606151" lon="-93.1027767">
        <ele>325.1</ele>
      </trkpt>
      <trkpt lat="42.360619" lon="-93.1024575">
        <ele>325.1</ele>
      </trkpt>
      <trkpt lat="42.360619" lon="-93.1023824">
        <ele>325</ele>
      </trkpt>
      <trkpt lat="42.360619" lon="-93.1020954">
        <ele>325</ele>
      </trkpt>
      <trkpt lat="42.360621" lon="-93.1019506">
        <ele>325</ele>
      </trkpt>
      <trkpt lat="42.360621" lon="-93.1018835">
        <ele>325</ele>
      </trkpt>
      <trkpt lat="42.360625" lon="-93.1013954">
        <ele>326.8</ele>
      </trkpt>
      <trkpt lat="42.3606309" lon="-93.1008777">
        <ele>327.5</ele>
      </trkpt>
      <trkpt lat="42.3606309" lon="-93.1007597">
        <ele>327.8</ele>
      </trkpt>
      <trkpt lat="42.3606309" lon="-93.1006524">
        <ele>328</ele>
      </trkpt>
      <trkpt lat="42.3606329" lon="-93.0996466">
        <ele>330.4</ele>
      </trkpt>
      <trkpt lat="42.3606329" lon="-93.0995151">
        <ele>330.8</ele>
      </trkpt>
      <trkpt lat="42.3606349" lon="-93.0994159">
        <ele>331</ele>
      </trkpt>
      <trkpt lat="42.3606468" lon="-93.0984476">
        <ele>331.8</ele>
      </trkpt>
      <trkpt lat="42.3606488" lon="-93.0983135">
        <ele>331.2</ele>
      </trkpt>
      <trkpt lat="42.3606507" lon="-93.098225">
        <ele>331</ele>
      </trkpt>
      <trkpt lat="42.3606607" lon="-93.0972165">
        <ele>329.2</ele>
      </trkpt>
      <trkpt lat="42.3606626" lon="-93.0970958">
        <ele>328.8</ele>
      </trkpt>
      <trkpt lat="42.3606626" lon="-93.0969885">
        <ele>328.2</ele>
      </trkpt>
      <trkpt lat="42.3606666" lon="-93.0964816">
        <ele>327.2</ele>
      </trkpt>
      <trkpt lat="42.3606686" lon="-93.0961141">
        <ele>325.2</ele>
      </trkpt>
      <trkpt lat="42.3606706" lon="-93.095988">
        <ele>324.8</ele>
      </trkpt>
      <trkpt lat="42.3606725" lon="-93.0958754">
        <ele>324</ele>
      </trkpt>
      <trkpt lat="42.3606844" lon="-93.0948803">
        <ele>320</ele>
      </trkpt>
      <trkpt lat="42.3606884" lon="-93.0934668">
        <ele>315.8</ele>
      </trkpt>
      <trkpt lat="42.3606904" lon="-93.0933514">
        <ele>315.2</ele>
      </trkpt>
      <trkpt lat="42.3606924" lon="-93.0930832">
        <ele>314.2</ele>
      </trkpt>
      <trkpt lat="42.3606983" lon="-93.0925387">
        <ele>313.5</ele>
      </trkpt>
      <trkpt lat="42.3607023" lon="-93.0921257">
        <ele>313</ele>
      </trkpt>
      <trkpt lat="42.3607003" lon="-93.0916858">
        <ele>312.6</ele>
      </trkpt>
      <trkpt lat="42.3607003" lon="-93.0913612">
        <ele>312.2</ele>
      </trkpt>
      <trkpt lat="42.3606567" lon="-93.0909052">
        <ele>313.5</ele>
      </trkpt>
      <trkpt lat="42.360623" lon="-93.0905753">
        <ele>314.8</ele>
      </trkpt>
      <trkpt lat="42.3606091" lon="-93.0901006">
        <ele>316.5</ele>
      </trkpt>
      <trkpt lat="42.3606329" lon="-93.0888614">
        <ele>318.2</ele>
      </trkpt>
      <trkpt lat="42.3606369" lon="-93.0885261">
        <ele>317.2</ele>
      </trkpt>
      <trkpt lat="42.3606448" lon="-93.0876169">
        <ele>318.2</ele>
      </trkpt>
      <trkpt lat="42.3606488" lon="-93.0870402">
        <ele>318.5</ele>
      </trkpt>
      <trkpt lat="42.3606547" lon="-93.086037">
        <ele>318.9</ele>
      </trkpt>
      <trkpt lat="42.3606607" lon="-93.0857876">
        <ele>319</ele>
      </trkpt>
      <trkpt lat="42.3606686" lon="-93.0848381">
        <ele>316.8</ele>
      </trkpt>
      <trkpt lat="42.3606765" lon="-93.0841434">
        <ele>313.8</ele>
      </trkpt>
      <trkpt lat="42.3606884" lon="-93.0835426" />
      <trkpt lat="42.3607122" lon="-93.0827352" />
      <trkpt lat="42.3607419" lon="-93.0818555">
        <ele>301</ele>
      </trkpt>
      <trkpt lat="42.3607697" lon="-93.0799109">
        <ele>299</ele>
      </trkpt>
      <trkpt lat="42.3607736" lon="-93.07964">
        <ele>300.5</ele>
      </trkpt>
      <trkpt lat="42.3607776" lon="-93.0792484">
        <ele>302.2</ele>
      </trkpt>
      <trkpt lat="42.3607875" lon="-93.0775076">
        <ele>308</ele>
      </trkpt>
      <trkpt lat="42.3607895" lon="-93.0769363">
        <ele>310.8</ele>
      </trkpt>
      <trkpt lat="42.3608133" lon="-93.0747959">
        <ele>319.2</ele>
      </trkpt>
      <trkpt lat="42.3608291" lon="-93.0734065">
        <ele>322.5</ele>
      </trkpt>
      <trkpt lat="42.360847" lon="-93.0722398">
        <ele>324</ele>
      </trkpt>
      <trkpt lat="42.3608628" lon="-93.0712098">
        <ele>325</ele>
      </trkpt>
      <trkpt lat="42.360952" lon="-93.065553">
        <ele>321.8</ele>
      </trkpt>
      <trkpt lat="42.3610035" lon="-93.062785">
        <ele>326</ele>
      </trkpt>
      <trkpt lat="42.3610075" lon="-93.0625516">
        <ele>326.5</ele>
      </trkpt>
      <trkpt lat="42.3609996" lon="-93.0621815">
        <ele>326.6</ele>
      </trkpt>
      <trkpt lat="42.3609936" lon="-93.0620286">
        <ele>326.6</ele>
      </trkpt>
      <trkpt lat="42.3609837" lon="-93.0618086">
        <ele>326.6</ele>
      </trkpt>
      <trkpt lat="42.3609163" lon="-93.0611435">
        <ele>326.8</ele>
      </trkpt>
      <trkpt lat="42.3608232" lon="-93.0605748">
        <ele>326.9</ele>
      </trkpt>
      <trkpt lat="42.3606626" lon="-93.0599016">
        <ele>327</ele>
      </trkpt>
      <trkpt lat="42.3604506" lon="-93.0592552">
        <ele>326.2</ele>
      </trkpt>
      <trkpt lat="42.3602583" lon="-93.0587965">
        <ele>326</ele>
      </trkpt>
      <trkpt lat="42.3599551" lon="-93.0581903">
        <ele>325</ele>
      </trkpt>
      <trkpt lat="42.3596221" lon="-93.0576378">
        <ele>324</ele>
      </trkpt>
      <trkpt lat="42.3592872" lon="-93.0571926">
        <ele>323.2</ele>
      </trkpt>
      <trkpt lat="42.3588591" lon="-93.056742">
        <ele>322</ele>
      </trkpt>
      <trkpt lat="42.3585003" lon="-93.0564147">
        <ele>321.5</ele>
      </trkpt>
      <trkpt lat="42.3564291" lon="-93.0549985">
        <ele>314.5</ele>
      </trkpt>
      <trkpt lat="42.3560902" lon="-93.054741">
        <ele>313.8</ele>
      </trkpt>
      <trkpt lat="42.3558364" lon="-93.0545345">
        <ele>312.8</ele>
      </trkpt>
      <trkpt lat="42.3555391" lon="-93.0542609">
        <ele>313</ele>
      </trkpt>
      <trkpt lat="42.3552894" lon="-93.0540007">
        <ele>312.2</ele>
      </trkpt>
      <trkpt lat="42.3550714" lon="-93.0537459">
        <ele>313</ele>
      </trkpt>
      <trkpt lat="42.3548395" lon="-93.0534428">
        <ele>313.5</ele>
      </trkpt>
      <trkpt lat="42.3546353" lon="-93.0531478">
        <ele>314</ele>
      </trkpt>
      <trkpt lat="42.3544272" lon="-93.0527884">
        <ele>315.2</ele>
      </trkpt>
      <trkpt lat="42.3541715" lon="-93.0522841">
        <ele>316.5</ele>
      </trkpt>
      <trkpt lat="42.3540228" lon="-93.0519381">
        <ele>317</ele>
      </trkpt>
      <trkpt lat="42.3539059" lon="-93.0516297">
        <ele>317.2</ele>
      </trkpt>
      <trkpt lat="42.3537949" lon="-93.0513212">
        <ele>317.5</ele>
      </trkpt>
      <trkpt lat="42.3536878" lon="-93.0509618">
        <ele>318.8</ele>
      </trkpt>
      <trkpt lat="42.3536006" lon="-93.0506077">
        <ele>319</ele>
      </trkpt>
      <trkpt lat="42.3535193" lon="-93.0502081">
        <ele>318.9</ele>
      </trkpt>
      <trkpt lat="42.3534619" lon="-93.0498299">
        <ele>318.8</ele>
      </trkpt>
      <trkpt lat="42.3534103" lon="-93.04939">
        <ele>318</ele>
      </trkpt>
      <trkpt lat="42.3533885" lon="-93.0490172">
        <ele>317.8</ele>
      </trkpt>
      <trkpt lat="42.3533727" lon="-93.0486122">
        <ele>317</ele>
      </trkpt>
      <trkpt lat="42.3534302" lon="-93.0460533">
        <ele>316.8</ele>
      </trkpt>
      <trkpt lat="42.3535431" lon="-93.0412495">
        <ele>319</ele>
      </trkpt>
      <trkpt lat="42.3536284" lon="-93.0377385">
        <ele>326</ele>
      </trkpt>
      <trkpt lat="42.3536898" lon="-93.0342194">
        <ele>325</ele>
      </trkpt>
      <trkpt lat="42.3536997" lon="-93.0304778">
        <ele>315</ele>
      </trkpt>
      <trkpt lat="42.3537215" lon="-93.021782">
        <ele>328</ele>
      </trkpt>
      <trkpt lat="42.353785" lon="-93.0114663">
        <ele>331</ele>
      </trkpt>
      <trkpt lat="42.353785" lon="-93.0113965">
        <ele>330.8</ele>
      </trkpt>
      <trkpt lat="42.3538246" lon="-93.0046615">
        <ele>331.8</ele>
      </trkpt>
      <trkpt lat="42.3538107" lon="-93.0022931">
        <ele>330</ele>
      </trkpt>
      <trkpt lat="42.3571109" lon="-93.0022904">
        <ele>335</ele>
      </trkpt>
      <trkpt lat="42.3605939" lon="-93.0022904">
        <ele>334.8</ele>
      </trkpt>
      <trkpt lat="42.3605939" lon="-93.0022904" />
      <trkpt lat="42.360594" lon="-93.0022891" />
      <extensions>
        <osmand:route>
          <segment id="196230755" length="14" startTrkptIdx="0" segmentTime="122.35" speed="8.53" turnType="C" types="0,1" pointTypes=";;2;3;4;3;;2;;;;;5;" names="51" />
          <segment id="1356958173" length="4" startTrkptIdx="13" segmentTime="31.66" speed="2.81" turnType="TL" turnAngle="-110.54" types="6,7,8,9,10,11,1,12,13,14,15,16,17,18,19" pointTypes=";20,2;3;" names="52,53,54,55,56" />
          <segment id="1486735824" length="6" startTrkptIdx="16" segmentTime="15.29" speed="15.48" types="6,7,21,9,10,11,1,12,13,14,15,16,17,18,19" pointTypes="3;22;;;;" names="52,53,54,55,56" />
          <segment id="156991607" length="14" startTrkptIdx="21" segmentTime="82.45" speed="11.73" types="6,7,21,9,10,11,23,24,1,12,13,14,15,25,16,17,18,19" pointTypes="2;2;22;2;2;2;;;;;26,2;;;" names="57,52,53,58,54,59,55,56" />
          <segment id="1356958174" length="3" startTrkptIdx="34" segmentTime="5.01" speed="19.33" types="6,7,27,9,10,11,23,24,1,12,13,14,15,25,16,17,18,19" names="57,52,53,58,54,59,55,56" />
          <segment id="1356958175" length="6" startTrkptIdx="36" segmentTime="21.38" speed="19.33" types="6,7,27,10,11,23,24,1,12,13,14,15,25,16,17,18,19" pointTypes=";;;;;" names="57,52,58,53,54,59,55" />
          <segment id="312615809" length="37" startTrkptIdx="41" segmentTime="231.28" speed="23.19" types="6,7,28,10,11,23,24,1,12,13,14,15,25,16,17,18,19" pointTypes=";2;;2;;;;;;2;2;;;2;2;2;2;;2;;;;;;;;;;;;" names="57,52,58,53,54,59,55" />
          <segment id="312615809" length="12" startTrkptIdx="77" segmentTime="182.93" speed="23.19" turnType="C" turnLanes="+C,TSLR" turnAngle="0.87" skipTurn="true" types="6,7,28,10,11,23,24,1,12,13,14,15,25,16,17,18,19" pointTypes=";;;;;;;;;;;" names="57,52,58,53,54,59,55" />
          <segment id="312615808" length="2" startTrkptIdx="88" segmentTime="1.38" speed="23.19" types="29,6,7,28,10,11,23,24,1,12,13,14,15,25,16,17,18,19" names="57,52,58,53,54,59,55" />
          <segment id="310563260" length="12" startTrkptIdx="89" segmentTime="203.41" speed="23.19" types="6,7,28,10,11,23,24,1,12,13,14,15,25,16,17,18,19" pointTypes="2;;;;;;;3;;2;;" names="57,52,58,53,54,59,55" />
          <segment id="310563259" length="2" startTrkptIdx="100" segmentTime="2.52" speed="23.19" types="29,6,7,28,11,23,24,1,12,13,14,15,25,16,17,18,19" names="57,52,58,53,54,59,55" />
          <segment id="15907440" length="9" startTrkptIdx="101" segmentTime="56.64" speed="17.05" types="6,7,28,10,11,23,24,1,12,13,14,15,25,16,17,18,19" pointTypes="3;22;;22;2;;2;30,31;" names="57,52,58,53,54,59,55" />
          <segment id="261285098" length="8" startTrkptIdx="109" segmentTime="221.26" speed="17.65" turnType="TL" turnAngle="-88.29" types="6,10,32,33,1,12,13,14,15,34,16,17,18,19" pointTypes=";;;;;;;" names="61,62,63,64,65,66,67" />
          <segment id="261285097" length="2" startTrkptIdx="116" segmentTime="4.36" speed="17.65" types="29,6,10,32,33,1,12,13,14,15,34,16,17,18,19" names="61,62,63,64,65,66,67" />
          <segment id="312849786" length="20" startTrkptIdx="117" segmentTime="258.13" speed="23.19" types="6,28,9,10,32,33,1,12,13,14,15,34,16,17,18,19" pointTypes=";2;;;2;;;;;;;;;;;2;;;;" names="61,62,63,64,65,66,67" />
          <segment id="312849787" length="2" startTrkptIdx="136" segmentTime="2.68" speed="23.19" types="29,6,28,9,32,33,1,12,13,14,15,34,16,17,18,19" names="61,62,63,64,65,66,67" />
          <segment id="15906085" length="4" startTrkptIdx="137" segmentTime="36.8" speed="23.19" types="6,28,9,32,33,1,12,13,14,15,34,16,17,18,19" pointTypes="3;;2;" names="61,62,63,64,65,66,67" />
          <segment id="1474589118" length="5" startTrkptIdx="140" segmentTime="9.59" speed="19.33" types="6,27,9,32,33,1,12,13,14,15,34,16,17,18,19" pointTypes="22;2;2;2;5" names="61,62,63,64,65,66,67" />
          <segment id="256775270" length="4" startTrkptIdx="144" segmentTime="60.1" speed="14.51" types="6,27,9,10,32,33,1,12,13,14,15,34,16,17,18,19" pointTypes="5;;3;" names="61,62,63,64,65,66,68" />
          <segment id="1474589117" length="13" startTrkptIdx="147" segmentTime="82.59" speed="9.86" types="6,21,9,10,32,33,1,12,13,14,15,34,16,17,18,19" pointTypes=";2;2;2;;5;3;2;2;;5;;" names="61,62,63,64,65,66,68" />
          <segment id="1474589116" length="39" startTrkptIdx="159" segmentTime="282.32" speed="4.03" types="6,35,10,32,33,1,12,13,14,15,34,16,17,18,19" pointTypes=";;;;;;;;;;;;;5;;41,5,3;2;5,3;;5,3;39,40,5;26;39,40,5;38,5;;36,37,5;36,37,5;;5;;;5;;;5;;;;" names="61,62,63,64,65,66,68" />
          <segment id="1474589114" length="15" startTrkptIdx="197" segmentTime="45.61" speed="15.48" types="6,7,21,9,10,32,33,1,12,13,14,15,34,16,17,18,19" pointTypes=";;3;3;3;2;;2;;;;;;;" names="61,62,63,64,65,66,68" />
          <segment id="256775269" length="3" startTrkptIdx="211" segmentTime="7.18" speed="19.33" types="29,6,7,27,42,9,43,32,33,44,12,13,14,15,34,16,17,18,19" names="61,62,63,64,65,66,68" />
          <segment id="15907436" length="2" startTrkptIdx="213" segmentTime="8.27" speed="19.33" types="6,7,27,9,10,32,33,1,12,13,14,15,34,16,17,18,19" pointTypes=";" names="61,62,63,64,65,66,68" />
          <segment id="1474589119" length="4" startTrkptIdx="214" segmentTime="10.22" speed="19.33" types="6,7,27,9,10,32,33,1,12,13,14,15,34,16,17,18,19" pointTypes="3;22;3;" names="61,62,63,64,65,66,67" />
          <segment id="15906089" length="52" startTrkptIdx="217" segmentTime="282.83" speed="23.19" types="6,28,9,10,32,33,1,12,13,14,15,34,16,17,18,19" pointTypes="22;3;2;2;2;;2;2;2;;;;;;;;;;;;;;;;;;2;2;2;3;2;2;;2;3;2;;;;;;;;2;;;2;;;;;" names="61,62,63,64,65,66,67" />
          <segment id="58199399" length="3" startTrkptIdx="268" segmentTime="60.36" speed="12.5" turnType="TL" turnAngle="-90.42" types="45,46,47" pointTypes=";;" names="69" />
          <segment id="-1" length="2" startTrkptIdx="271" segmentTime="0.01" speed="12.5" turnType="TR" turnAngle="82.87" types="48" />
        </osmand:route>
        <osmand:types>
          <type t="highway" v="residential" />
          <type t="osmand_highway_integrity_brouting" v="0" />
          <type t="osmand_ele_decline_1" v="1" />
          <type t="osmand_ele_decline_3" v="1" />
          <type t="osmand_ele_decline_7" v="1" />
          <type t="highway" v="crossing" />
          <type t="highway" v="primary" />
          <type t="lanes" v="2" />
          <type t="maxspeed" v="30 mph" />
          <type t="oneway" v="no" />
          <type t="surface" v="asphalt" />
          <type t="route_road_1_network" v="us:us" />
          <type t="route_road_1_shield_shape" v="rounded_rectangle" />
          <type t="route_road_1_shield_color" v="white" />
          <type t="route_road_2_shield_shape" v="rounded_rectangle" />
          <type t="route_road_2_shield_color" v="white" />
          <type t="road_shield_shape_1" v="rounded_rectangle" />
          <type t="road_shield_color_1" v="white" />
          <type t="road_shield_shape_2" v="rounded_rectangle" />
          <type t="road_shield_color_2" v="white" />
          <type t="railway" v="level_crossing" />
          <type t="maxspeed" v="35 mph" />
          <type t="osmand_ele_decline_5" v="1" />
          <type t="route_road_2_network" v="us:auto_trail" />
          <type t="route_road_2_us_state_network" v="yes" />
          <type t="road_us_state_network_2" v="yes" />
          <type t="highway" v="traffic_signals" />
          <type t="maxspeed" v="45 mph" />
          <type t="maxspeed" v="55 mph" />
          <type t="bridge" v="yes" />
          <type t="direction" v="backward" />
          <type t="highway" v="stop" />
          <type t="route_road_1_network" v="us:ia" />
          <type t="route_road_1_us_state_network" v="yes" />
          <type t="road_us_state_network_1" v="yes" />
          <type t="maxspeed" v="25 mph" />
          <type t="crossing" v="uncontrolled" />
          <type t="crossing:markings" v="yes" />
          <type t="crossing:markings" v="lines" />
          <type t="crossing:island" v="no" />
          <type t="crossing:signals" v="yes" />
          <type t="crossing:signals" v="no" />
          <type t="maxweight:signed" v="no" />
          <type t="surface" v="concrete" />
          <type t="osmand_highway_integrity_brouting" v="1" />
          <type t="highway" v="tertiary" />
          <type t="surface" v="gravel" />
          <type t="osmand_highway_integrity_brouting" v="4" />
          <type t="highway" v="unmatched" />
          <type t="name" v="" />
          <type t="ref" v="" />
          <type t="name" v="Country Club Road" />
          <type t="route_road_1_ref" v="65" />
          <type t="road_ref_1" v="65" />
          <type t="road_network_1" v="us:us" />
          <type t="ref" v="US 65" />
          <type t="name" v="South Oak Street" />
          <type t="route_road_2_name" v="Jefferson Highway Heritage Byway" />
          <type t="road_network_2" v="us:auto_trail" />
          <type t="road_name_2" v="Jefferson Highway Heritage Byway" />
          <type t="direction" v="" />
          <type t="route_road_1_ref" v="175" />
          <type t="road_ref_1" v="175" />
          <type t="route_road_1_name" v="IA 175" />
          <type t="road_network_1" v="us:ia" />
          <type t="road_name_1" v="IA 175" />
          <type t="ref" v="IA 175" />
          <type t="name" v="State Highway 175" />
          <type t="name" v="Edgington Avenue" />
          <type t="name" v="B Avenue" />
        </osmand:types>
      </extensions>
    </trkseg>
  </trk>
</gpx>